start=new Date('2021-09-15T00:00:00.000Z').valueOf();
sats=[{"TLE_LINE2":"2 47987  53.0462  56.4889 0007484 281.2980 114.5142 15.76715287  3684","RCS_SIZE":"LARGE","ARG_OF_PERICENTER":"281.2980","CENTER_NAME":"EARTH","MEAN_MOTION_DDOT":"0.0000000000000","REF_FRAME":"TEME","EPOCH":"2021-09-15T00:00:00.999648","NORAD_CAT_ID":"47987","PERIAPSIS":"334.729","MEAN_ELEMENT_THEORY":"SGP4","PERIOD":"91.329","OBJECT_TYPE":"PAYLOAD","LAUNCH_DATE":"2021-03-24","ELEMENT_SET_NO":"999","INCLINATION":"53.0462","FILE":"3115650","CLASSIFICATION_TYPE":"U","OBJECT_NAME":"STARLINK-2311","GP_ID":"184723008","MEAN_MOTION_DOT":"-0.00003037","COUNTRY_CODE":"US","MEAN_ANOMALY":"114.5142","OBJECT_ID":"2021-024L","SITE":"AFETR","ECCENTRICITY":"0.00074840","EPHEMERIS_TYPE":"0","SEMIMAJOR_AXIS":"6717.892","TLE_LINE1":"1 47987U 21024L   21258.00001157 -.00003037  00000-0 -14464-4 0  9994","TIME_SYSTEM":"UTC","APOAPSIS":"344.784","BSTAR":"-0.00001446400000","RA_OF_ASC_NODE":"56.4889","DECAY_DATE":null,"MEAN_MOTION":"15.76715287","REV_AT_EPOCH":"368"},{"TLE_LINE2":"2 47988  53.0552  98.9934 0002091  90.4081 199.7631 15.06380316  3578","RCS_SIZE":"LARGE","ARG_OF_PERICENTER":"90.4081","CENTER_NAME":"EARTH","REF_FRAME":"TEME","MEAN_MOTION_DDOT":"0.0000000000000","NORAD_CAT_ID":"47988","EPOCH":"2021-09-15T00:00:00.999648","PERIAPSIS":"545.826","MEAN_ELEMENT_THEORY":"SGP4","OBJECT_TYPE":"PAYLOAD","PERIOD":"95.593","LAUNCH_DATE":"2021-03-24","INCLINATION":"53.0552","ELEMENT_SET_NO":"999","FILE":"3115650","OBJECT_NAME":"STARLINK-2306","CLASSIFICATION_TYPE":"U","GP_ID":"184724259","MEAN_MOTION_DOT":"0.00042364","COUNTRY_CODE":"US","MEAN_ANOMALY":"199.7631","OBJECT_ID":"2021-024M","SITE":"AFETR","EPHEMERIS_TYPE":"0","ECCENTRICITY":"0.00020910","SEMIMAJOR_AXIS":"6925.409","BSTAR":"0.00284740000000","TLE_LINE1":"1 47988U 21024M   21258.00001157  .00042364  00000-0  28474-2 0  9993","APOAPSIS":"548.722","TIME_SYSTEM":"UTC","DECAY_DATE":null,"RA_OF_ASC_NODE":"98.9934","MEAN_MOTION":"15.06380316","REV_AT_EPOCH":"357"},{"GP_ID":"184724510","MEAN_MOTION_DOT":"-0.00016388","COUNTRY_CODE":"US","OBJECT_ID":"2021-024N","MEAN_ANOMALY":"355.3546","SITE":"AFETR","SEMIMAJOR_AXIS":"6727.855","EPHEMERIS_TYPE":"0","ECCENTRICITY":"0.00044760","TIME_SYSTEM":"UTC","TLE_LINE1":"1 47989U 21024N   21258.00001157 -.00016388  00000-0 -11237-3 0  9993","APOAPSIS":"352.732","BSTAR":"-0.00011237000000","MEAN_MOTION":"15.73213949","DECAY_DATE":null,"RA_OF_ASC_NODE":"56.5723","REV_AT_EPOCH":"368","TLE_LINE2":"2 47989  53.0459  56.5723 0004476 359.0381 355.3546 15.73213949  3685","RCS_SIZE":"LARGE","ARG_OF_PERICENTER":"359.0381","MEAN_MOTION_DDOT":"0.0000000000000","REF_FRAME":"TEME","CENTER_NAME":"EARTH","PERIAPSIS":"346.709","EPOCH":"2021-09-15T00:00:00.999648","NORAD_CAT_ID":"47989","PERIOD":"91.532","OBJECT_TYPE":"PAYLOAD","MEAN_ELEMENT_THEORY":"SGP4","LAUNCH_DATE":"2021-03-24","FILE":"3115650","ELEMENT_SET_NO":"999","INCLINATION":"53.0459","CLASSIFICATION_TYPE":"U","OBJECT_NAME":"STARLINK-2305"},{"GP_ID":"184723258","MEAN_MOTION_DOT":"0.00038545","COUNTRY_CODE":"US","MEAN_ANOMALY":"357.2398","OBJECT_ID":"2021-024P","SITE":"AFETR","EPHEMERIS_TYPE":"0","ECCENTRICITY":"0.00043980","SEMIMAJOR_AXIS":"6727.926","TLE_LINE1":"1 47990U 21024P   21258.00001157  .00038545  00000-0  27777-3 0  9998","APOAPSIS":"352.750","BSTAR":"0.00027777000000","TIME_SYSTEM":"UTC","DECAY_DATE":null,"RA_OF_ASC_NODE":"56.5744","MEAN_MOTION":"15.73189031","REV_AT_EPOCH":"368","TLE_LINE2":"2 47990  53.0460  56.5744 0004398 357.7477 357.2398 15.73189031  3686","RCS_SIZE":"LARGE","ARG_OF_PERICENTER":"357.7477","CENTER_NAME":"EARTH","MEAN_MOTION_DDOT":"0.0000000000000","REF_FRAME":"TEME","EPOCH":"2021-09-15T00:00:00.999648","NORAD_CAT_ID":"47990","PERIAPSIS":"346.833","MEAN_ELEMENT_THEORY":"SGP4","PERIOD":"91.534","OBJECT_TYPE":"PAYLOAD","LAUNCH_DATE":"2021-03-24","ELEMENT_SET_NO":"999","INCLINATION":"53.0460","FILE":"3115650","CLASSIFICATION_TYPE":"U","OBJECT_NAME":"STARLINK-2307"},{"SITE":"AFETR","OBJECT_ID":"2021-024Q","COUNTRY_CODE":"US","MEAN_ANOMALY":"29.4289","MEAN_MOTION_DOT":"-0.00966583","GP_ID":"184723508","REV_AT_EPOCH":"368","DECAY_DATE":null,"RA_OF_ASC_NODE":"56.5873","MEAN_MOTION":"15.70916716","BSTAR":"-0.00834640000000","TLE_LINE1":"1 47991U 21024Q   21258.00001157 -.00966583  00000-0 -83464-2 0  9997","APOAPSIS":"359.430","TIME_SYSTEM":"UTC","EPHEMERIS_TYPE":"0","ECCENTRICITY":"0.00046800","SEMIMAJOR_AXIS":"6734.413","EPOCH":"2021-09-15T00:00:00.999648","NORAD_CAT_ID":"47991","PERIAPSIS":"353.126","CENTER_NAME":"EARTH","MEAN_MOTION_DDOT":"0.0000000000000","REF_FRAME":"TEME","ARG_OF_PERICENTER":"321.4275","RCS_SIZE":"MEDIUM","TLE_LINE2":"2 47991  53.0472  56.5873 0004680 321.4275  29.4289 15.70916716  3683","CLASSIFICATION_TYPE":"U","OBJECT_NAME":"STARLINK-2279","ELEMENT_SET_NO":"999","INCLINATION":"53.0472","FILE":"3115650","LAUNCH_DATE":"2021-03-24","MEAN_ELEMENT_THEORY":"SGP4","PERIOD":"91.666","OBJECT_TYPE":"PAYLOAD"},{"REV_AT_EPOCH":"373","MEAN_MOTION":"15.73231071","RA_OF_ASC_NODE":"56.5737","DECAY_DATE":null,"TLE_LINE1":"1 47992U 21024R   21258.00001157 -.00069388  00000-0 -49295-3 0  9990","TIME_SYSTEM":"UTC","APOAPSIS":"352.619","BSTAR":"-0.00049295000000","SEMIMAJOR_AXIS":"6727.807","EPHEMERIS_TYPE":"0","ECCENTRICITY":"0.00043810","SITE":"AFETR","COUNTRY_CODE":"US","OBJECT_ID":"2021-024R","MEAN_ANOMALY":"0.0046","MEAN_MOTION_DOT":"-0.00069388","GP_ID":"184723760","OBJECT_NAME":"STARLINK-2229","CLASSIFICATION_TYPE":"U","FILE":"3115650","INCLINATION":"53.0462","ELEMENT_SET_NO":"999","LAUNCH_DATE":"2021-03-24","OBJECT_TYPE":"PAYLOAD","PERIOD":"91.531","MEAN_ELEMENT_THEORY":"SGP4","PERIAPSIS":"346.724","NORAD_CAT_ID":"47992","EPOCH":"2021-09-15T00:00:00.999648","REF_FRAME":"TEME","MEAN_MOTION_DDOT":"0.0000000000000","CENTER_NAME":"EARTH","ARG_OF_PERICENTER":"356.2867","TLE_LINE2":"2 47992  53.0462  56.5737 0004381 356.2867   0.0046 15.73231071  3732","RCS_SIZE":"LARGE"},{"GP_ID":"184724011","MEAN_MOTION_DOT":"0.00035133","MEAN_ANOMALY":"172.6766","COUNTRY_CODE":"US","OBJECT_ID":"2021-024S","SITE":"AFETR","SEMIMAJOR_AXIS":"6925.381","EPHEMERIS_TYPE":"0","ECCENTRICITY":"0.00020070","TLE_LINE1":"1 47993U 21024S   21258.00001157  .00035133  00000-0  23664-2 0  9991","APOAPSIS":"548.636","BSTAR":"0.00236640000000","TIME_SYSTEM":"UTC","MEAN_MOTION":"15.06389432","DECAY_DATE":null,"RA_OF_ASC_NODE":"83.9958","REV_AT_EPOCH":"357","TLE_LINE2":"2 47993  53.0552  83.9958 0002007  99.9762 172.6766 15.06389432  3578","RCS_SIZE":"LARGE","ARG_OF_PERICENTER":"99.9762","REF_FRAME":"TEME","MEAN_MOTION_DDOT":"0.0000000000000","CENTER_NAME":"EARTH","PERIAPSIS":"545.856","NORAD_CAT_ID":"47993","EPOCH":"2021-09-15T00:00:00.999648","OBJECT_TYPE":"PAYLOAD","PERIOD":"95.593","MEAN_ELEMENT_THEORY":"SGP4","LAUNCH_DATE":"2021-03-24","FILE":"3115650","INCLINATION":"53.0552","ELEMENT_SET_NO":"999","OBJECT_NAME":"STARLINK-2273","CLASSIFICATION_TYPE":"U"},{"LAUNCH_DATE":"2021-03-24","MEAN_ELEMENT_THEORY":"SGP4","PERIOD":"95.749","OBJECT_TYPE":"PAYLOAD","CLASSIFICATION_TYPE":"U","OBJECT_NAME":"STARLINK-2290","ELEMENT_SET_NO":"999","INCLINATION":"53.0537","FILE":"3115650","ARG_OF_PERICENTER":"84.1119","TLE_LINE2":"2 47994  53.0537  98.8508 0002225  84.1119 241.2503 15.03925664  3563","RCS_SIZE":"LARGE","EPOCH":"2021-09-15T00:00:00.999648","NORAD_CAT_ID":"47994","PERIAPSIS":"553.265","CENTER_NAME":"EARTH","MEAN_MOTION_DDOT":"0.0000000000000","REF_FRAME":"TEME","TLE_LINE1":"1 47994U 21024T   21258.00001157  .00039927  00000-0  28680-2 0  9990","APOAPSIS":"556.350","TIME_SYSTEM":"UTC","BSTAR":"0.00286800000000","EPHEMERIS_TYPE":"0","ECCENTRICITY":"0.00022250","SEMIMAJOR_AXIS":"6932.942","REV_AT_EPOCH":"356","RA_OF_ASC_NODE":"98.8508","DECAY_DATE":null,"MEAN_MOTION":"15.03925664","MEAN_MOTION_DOT":"0.00039927","GP_ID":"184722759","SITE":"AFETR","MEAN_ANOMALY":"241.2503","COUNTRY_CODE":"US","OBJECT_ID":"2021-024T"},{"REV_AT_EPOCH":"362","RA_OF_ASC_NODE":"63.5704","DECAY_DATE":null,"MEAN_MOTION":"15.11394231","APOAPSIS":"532.893","TLE_LINE1":"1 47995U 21024U   21258.00001157 -.00917993  00000-0 -58089-1 0  9996","BSTAR":"-0.05808900000000","TIME_SYSTEM":"UTC","EPHEMERIS_TYPE":"0","ECCENTRICITY":"0.00013660","SEMIMAJOR_AXIS":"6910.084","SITE":"AFETR","COUNTRY_CODE":"US","MEAN_ANOMALY":"57.4660","OBJECT_ID":"2021-024U","MEAN_MOTION_DOT":"-0.00917993","GP_ID":"184723009","CLASSIFICATION_TYPE":"U","OBJECT_NAME":"STARLINK-2309","ELEMENT_SET_NO":"999","INCLINATION":"53.0467","FILE":"3115650","LAUNCH_DATE":"2021-03-24","MEAN_ELEMENT_THEORY":"SGP4","PERIOD":"95.276","OBJECT_TYPE":"PAYLOAD","EPOCH":"2021-09-15T00:00:00.999648","NORAD_CAT_ID":"47995","PERIAPSIS":"531.005","CENTER_NAME":"EARTH","MEAN_MOTION_DDOT":"0.0000000000000","REF_FRAME":"TEME","ARG_OF_PERICENTER":"98.9877","TLE_LINE2":"2 47995  53.0467  63.5704 0001366  98.9877  57.4660 15.11394231  3629","RCS_SIZE":"MEDIUM"},{"TLE_LINE1":"1 47996U 21024V   21258.00001157 -.00066567  00000-0 -47242-3 0  9990","APOAPSIS":"352.764","BSTAR":"-0.00047242000000","TIME_SYSTEM":"UTC","EPHEMERIS_TYPE":"0","ECCENTRICITY":"0.00046190","SEMIMAJOR_AXIS":"6727.791","REV_AT_EPOCH":"368","RA_OF_ASC_NODE":"56.5670","DECAY_DATE":null,"MEAN_MOTION":"15.73236548","MEAN_MOTION_DOT":"-0.00066567","GP_ID":"184724260","SITE":"AFETR","COUNTRY_CODE":"US","MEAN_ANOMALY":"356.5911","OBJECT_ID":"2021-024V","LAUNCH_DATE":"2021-03-24","MEAN_ELEMENT_THEORY":"SGP4","OBJECT_TYPE":"PAYLOAD","PERIOD":"91.531","OBJECT_NAME":"STARLINK-2260","CLASSIFICATION_TYPE":"U","INCLINATION":"53.0460","ELEMENT_SET_NO":"999","FILE":"3115650","ARG_OF_PERICENTER":"2.2500","RCS_SIZE":"LARGE","TLE_LINE2":"2 47996  53.0460  56.5670 0004619   2.2500 356.5911 15.73236548  3684","NORAD_CAT_ID":"47996","EPOCH":"2021-09-15T00:00:00.999648","PERIAPSIS":"346.548","CENTER_NAME":"EARTH","REF_FRAME":"TEME","MEAN_MOTION_DDOT":"0.0000000000000"}];
